[{"OBJECT_NAME":"SHIYAN-5 (SY-5)","OBJECT_ID":"2013-068A","EPOCH":"2026-03-09T23:05:17.847168","MEAN_MOTION":14.43628019,"ECCENTRICITY":0.00128666,"INCLINATION":98.0874,"RA_OF_ASC_NODE":305.1507,"ARG_OF_PERICENTER":245.0461,"MEAN_ANOMALY":114.9394,"EPHEMERIS_TYPE":0,"CLASSIFICATION_TYPE":"U","NORAD_CAT_ID":39455,"ELEMENT_SET_NO":999,"REV_AT_EPOCH":64731,"BSTAR":0.00021006914,"MEAN_MOTION_DOT":6.72e-6,"MEAN_MOTION_DDOT":0},{"OBJECT_NAME":"USA 141 (ATEX)","OBJECT_ID":"1998-055C","EPOCH":"2026-03-09T23:24:11.896416","MEAN_MOTION":14.47179008,"ECCENTRICITY":0.00081018,"INCLINATION":84.9807,"RA_OF_ASC_NODE":66.8021,"ARG_OF_PERICENTER":159.1752,"MEAN_ANOMALY":200.9781,"EPHEMERIS_TYPE":0,"CLASSIFICATION_TYPE":"U","NORAD_CAT_ID":25615,"ELEMENT_SET_NO":999,"REV_AT_EPOCH":35968,"BSTAR":0.00013696233,"MEAN_MOTION_DOT":5.2e-6,"MEAN_MOTION_DDOT":0}]
